OBJECT_NAME,OBJECT_ID,EPOCH,MEAN_MOTION,ECCENTRICITY,INCLINATION,RA_OF_ASC_NODE,ARG_OF_PERICENTER,MEAN_ANOMALY,EPHEMERIS_TYPE,CLASSIFICATION_TYPE,NORAD_CAT_ID,ELEMENT_SET_NO,REV_AT_EPOCH,BSTAR,MEAN_MOTION_DOT,MEAN_MOTION_DDOT
JILIN-1 03,2017-002B,2026-07-17T06:25:04.110816,15.42263389,.00077684,97.1950,204.9428,73.8190,286.3912,0,U,41914,999,52649,.17475648E-3,.7437E-4,0
CARTOSAT-2D,2017-008A,2026-07-17T06:11:42.510624,15.19292245,.00061663,97.4085,256.9998,132.7830,227.3925,0,U,41948,999,52214,.93484957E-4,.1906E-4,0
CARTOSAT-2E,2017-036C,2026-07-17T08:12:11.587392,15.19264036,.00035187,97.4257,257.6445,179.3577,180.7662,0,U,42767,999,50272,.99103397E-4,.2022E-4,0
IRIDIUM 113,2017-039A,2026-07-17T05:46:47.161632,14.34217620,.00021325,86.3992,309.6181,92.6766,267.4674,0,U,42803,999,47549,.1719793E-4,.68E-6,0
NORSAT 2,2017-042D,2026-07-17T00:04:53.788512,15.22447006,.00081303,97.4056,10.9845,310.7606,49.2924,0,U,42828,999,49227,.21960643E-3,.5014E-4,0
TECHNOSAT,2017-042E,2026-07-16T23:14:01.998816,15.05116982,.00172614,97.4320,354.5006,357.7865,2.3283,0,U,42829,999,49118,.10814984E-3,.1484E-4,0
FLYING LAPTOP,2017-042G,2026-07-17T07:30:31.440960,15.01320786,.00195971,97.4816,352.7137,25.7451,334.4745,0,U,42831,999,49097,.14415378E-3,.1804E-4,0
WNISAT 1R,2017-042L,2026-07-17T00:11:10.867488,15.01860061,.00106309,97.4819,353.0647,59.0468,301.1801,0,U,42835,999,49098,.30666402E-4,.343E-5,0
LEMUR-2-GREENBERG,2017-042N,2026-07-17T00:08:54.935232,15.32187524,.00072594,97.3832,18.5143,251.9389,108.1062,0,U,42837,999,49295,.29799908E-3,.9191E-4,0
LEMUR-2-FURIAUS,2017-042R,2026-07-16T11:56:24.813888,15.31157870,.0005913,97.3778,15.8960,324.3797,35.7049,0,U,42840,999,49269,.33733E-3,.10084E-3,0
CORVUS BC2,2017-042X,2026-07-16T22:53:16.085760,15.06460908,.00132787,97.4092,358.1541,17.2142,342.9533,0,U,42846,999,49154,.78260368E-4,.1097E-4,0
CORVUS BC1,2017-042Y,2026-07-16T21:05:09.453696,15.06624631,.00114683,97.4122,358.9151,354.1091,6.0000,0,U,42847,999,49156,.10165446E-3,.1449E-4,0
VRSS-2,2017-060A,2026-07-17T07:34:53.269248,14.81238088,.00172646,97.6493,234.6843,6.8542,353.2904,0,U,42954,999,47291,.22689738E-4,.127E-5,0
MOHAMMED VI-A,2017-070A,2026-07-17T06:55:08.641344,14.77102678,.00012112,97.9549,270.2033,97.1618,262.9730,0,U,43005,999,46842,.11476266E-4,.3E-6,0
FENGYUN 3D,2017-072A,2026-07-17T05:45:38.674080,14.19745026,.00014387,99.0145,173.2087,10.6602,349.4604,0,U,43010,999,44925,.39359141E-4,.37E-6,0
NOAA 20 (JPSS-1),2017-073A,2026-07-17T07:27:00.488448,14.19516701,.00014699,98.7772,137.5063,122.2093,237.9226,0,U,43013,999,44874,.29161958E-4,.17E-6,0
MAKERSAT 0,2017-073D,2026-07-16T10:20:26.018880,15.33035166,.0105507,97.4577,80.1901,167.8681,192.5141,0,U,43016,999,47094,.30313E-3,.11478E-3,0
RADFXSAT (FOX-1B),2017-073E,2026-07-17T02:28:24.588768,15.13077780,.01483139,97.4662,64.7083,224.8184,134.0992,0,U,43017,999,46991,.18979779E-3,.4326E-4,0
JILIN-1 04,2017-074A,2026-07-17T07:26:44.000736,15.43167028,.00052276,97.4881,308.7449,94.9517,265.2328,0,U,43022,999,47891,.18421823E-3,.8077E-4,0
JILIN-1 05,2017-074B,2026-07-17T07:42:29.894976,15.34305303,.00065272,97.4884,304.8947,118.8101,241.3798,0,U,43023,999,47862,.13826825E-3,.4512E-4,0
JILIN-1 06,2017-074C,2026-07-17T05:34:27.086016,15.34010097,.00082039,97.4809,301.7735,128.0718,232.1266,0,U,43024,999,47844,.10532521E-3,.3387E-4,0
IRIDIUM 116,2017-083C,2026-07-17T06:50:43.065024,14.34218141,.0002498,86.3985,309.4198,97.5580,262.5899,0,U,43072,999,44848,.37483073E-4,.125E-5,0
IRIDIUM 130,2017-083D,2026-07-17T06:05:03.358176,14.34218427,.00023062,86.3994,309.7114,100.5978,259.5478,0,U,43073,999,44842,.42935166E-4,.14E-5,0
LKW-2,2017-084A,2026-07-17T07:30:20.685888,15.26706238,.00036618,97.1172,236.7054,115.9806,244.1811,0,U,43080,999,47628,.14005947E-3,.361E-4,0
SUPERVIEW-1 03,2018-002A,2026-07-17T06:06:33.296256,15.40261784,.00468031,97.3128,283.0656,73.9160,286.7232,0,U,43099,999,47299,.29598753E-3,.12299E-3,0
CARTOSAT-2F,2018-004A,2026-07-17T07:24:21.750048,15.19183025,.00024163,97.4768,257.6467,129.9496,230.1951,0,U,43111,999,47190,.13126207E-3,.2692E-4,0
LKW-3,2018-006A,2026-07-17T06:58:59.964384,15.35774754,.00031635,97.6643,0.0565,172.0679,188.0614,0,U,43146,999,47333,.15794919E-3,.541E-4,0
ASNARO-2,2018-007A,2026-07-17T06:56:31.030656,15.22406320,.0001759,97.3974,204.7466,91.0156,269.1282,0,U,43152,999,47199,.20527995E-3,.4674E-4,0
